[{"OBJECT_NAME":"STARLINK-35226","OBJECT_ID":"2025-198A","EPOCH":"2026-03-09T19:35:59.322912","MEAN_MOTION":15.30197756,"ECCENTRICITY":0.00010279,"INCLINATION":53.1595,"RA_OF_ASC_NODE":270.1174,"ARG_OF_PERICENTER":77.2929,"MEAN_ANOMALY":282.8187,"EPHEMERIS_TYPE":0,"CLASSIFICATION_TYPE":"U","NORAD_CAT_ID":65492,"ELEMENT_SET_NO":999,"REV_AT_EPOCH":2864,"BSTAR":0.00057996317,"MEAN_MOTION_DOT":0.00016855,"MEAN_MOTION_DDOT":0},{"OBJECT_NAME":"USA 55","OBJECT_ID":"1990-028B","EPOCH":"2026-03-09T23:32:27.967200","MEAN_MOTION":15.43003152,"ECCENTRICITY":0.00579189,"INCLINATION":94.0887,"RA_OF_ASC_NODE":87.6293,"ARG_OF_PERICENTER":152.9949,"MEAN_ANOMALY":207.4341,"EPHEMERIS_TYPE":0,"CLASSIFICATION_TYPE":"U","NORAD_CAT_ID":20547,"ELEMENT_SET_NO":999,"REV_AT_EPOCH":98658,"BSTAR":0.00013659834,"MEAN_MOTION_DOT":6.373e-5,"MEAN_MOTION_DDOT":0}]
